{"type": "FeatureCollection", "features": [ {"type": "Feature", "properties": {"norad_id": 39586, "name": "COSMOS 2251 DEB", "group": "cosmos-2251-debris", "lat": 11.911053075297685, "lon": -129.1793422397446, "alt_km": 750.7983597060384, "timestamp": "2025-12-13T05:42:57.970586+00:00", "meta": {"OBJECT_NAME": "COSMOS 2251 DEB", "OBJECT_ID": "1993-036BUR", "EPOCH": "2025-12-11T10:34:49.908288", "MEAN_MOTION": 14.21221392, "ECCENTRICITY": 0.01007513, "INCLINATION": 74.009, "RA_OF_ASC_NODE": 230.5784, "ARG_OF_PERICENTER": 5.5344, "MEAN_ANOMALY": 174.6065, "EPHEMERIS_TYPE": 0, "CLASSIFICATION_TYPE": "U", "NORAD_CAT_ID": 39586, "ELEMENT_SET_NO": 999, "REV_AT_EPOCH": 60953, "BSTAR": 0.00065665467, "MEAN_MOTION_DOT": 1.479e-05, "MEAN_MOTION_DDOT": 0}, "tle": {"line1": "1 39586U 93036BUR 25345.44085542  .00001479  00000+0  65665-3 0  9994", "line2": "2 39586  74.0090 230.5784 0100751   5.5344 174.6065 14.21221392609536"}}, "geometry": {"type": "Point", "coordinates": [-129.1793422397446, 11.911053075297685]}}, {"type": "Feature", "properties": {"norad_id": 39591, "name": "COSMOS 2251 DEB", "group": "cosmos-2251-debris", "lat": -58.55940908693078, "lon": -142.11866483016965, "alt_km": 749.1644506754901, "timestamp": "2025-12-13T05:42:57.970597+00:00", "meta": {"OBJECT_NAME": "COSMOS 2251 DEB", "OBJECT_ID": "1993-036BUW", "EPOCH": "2025-12-12T01:59:32.254080", "MEAN_MOTION": 14.41810827, "ECCENTRICITY": 0.00292496, "INCLINATION": 74.0182, "RA_OF_ASC_NODE": 247.9773, "ARG_OF_PERICENTER": 1.0905, "MEAN_ANOMALY": 63.237, "EPHEMERIS_TYPE": 0, "CLASSIFICATION_TYPE": "U", "NORAD_CAT_ID": 39591, "ELEMENT_SET_NO": 999, "REV_AT_EPOCH": 61767, "BSTAR": 0.00046745836, "MEAN_MOTION_DOT": 1.509e-05, "MEAN_MOTION_DDOT": 0}, "tle": {"line1": "1 39591U 93036BUW 25346.08301220  .00001509  00000+0  46746-3 0  9998", "line2": "2 39591  74.0182 247.9773 0029249   1.0905  63.2370 14.41810827617675"}}, "geometry": {"type": "Point", "coordinates": [-142.11866483016965, -58.55940908693078]}}, {"type": "Feature", "properties": {"norad_id": 40218, "name": "COSMOS 2251 DEB", "group": "cosmos-2251-debris", "lat": -10.779825492326923, "lon": 71.0362290724969, "alt_km": 766.0325262793285, "timestamp": "2025-12-13T05:42:57.970607+00:00", "meta": {"OBJECT_NAME": "COSMOS 2251 DEB", "OBJECT_ID": "1993-036BUX", "EPOCH": "2025-12-02T02:20:48.132384", "MEAN_MOTION": 14.41546301, "ECCENTRICITY": 0.00163619, "INCLINATION": 74.0309, "RA_OF_ASC_NODE": 268.5457, "ARG_OF_PERICENTER": 353.795, "MEAN_ANOMALY": 6.3, "EPHEMERIS_TYPE": 0, "CLASSIFICATION_TYPE": "U", "NORAD_CAT_ID": 40218, "ELEMENT_SET_NO": 999, "REV_AT_EPOCH": 58708, "BSTAR": 0.00047133972, "MEAN_MOTION_DOT": 1.508e-05, "MEAN_MOTION_DDOT": 0}, "tle": {"line1": "1 40218U 93036BUX 25336.09777931  .00001508  00000+0  47134-3 0  9993", "line2": "2 40218  74.0309 268.5457 0016361 353.7950   6.3000 14.41546301587082"}}, "geometry": {"type": "Point", "coordinates": [71.0362290724969, -10.779825492326923]}}, {"type": "Feature", "properties": {"norad_id": 40223, "name": "COSMOS 2251 DEB", "group": "cosmos-2251-debris", "lat": -73.85419872597504, "lon": 3.289595775111411, "alt_km": 552.320894892795, "timestamp": "2025-12-13T05:42:57.970618+00:00", "meta": {"OBJECT_NAME": "COSMOS 2251 DEB", "OBJECT_ID": "1993-036BVC", "EPOCH": "2025-12-10T14:17:20.108832", "MEAN_MOTION": 15.03183139, "ECCENTRICITY": 0.0015245, "INCLINATION": 73.938, "RA_OF_ASC_NODE": 93.1094, "ARG_OF_PERICENTER": 294.1095, "MEAN_ANOMALY": 79.7132, "EPHEMERIS_TYPE": 0, "CLASSIFICATION_TYPE": "U", "NORAD_CAT_ID": 40223, "ELEMENT_SET_NO": 999, "REV_AT_EPOCH": 59342, "BSTAR": 0.0071622, "MEAN_MOTION_DOT": 0.00098423, "MEAN_MOTION_DDOT": 0}, "tle": {"line1": "1 40223U 93036BVC 25344.59537163  .00098423  00000+0  71622-2 0  9994", "line2": "2 40223  73.9380  93.1094 0015245 294.1095  79.7132 15.03183139593422"}}, "geometry": {"type": "Point", "coordinates": [3.289595775111411, -73.85419872597504]}}, {"type": "Feature", "properties": {"norad_id": 40228, "name": "COSMOS 2251 DEB", "group": "cosmos-2251-debris", "lat": 71.6791700736561, "lon": -40.69096765321908, "alt_km": 756.4735091586608, "timestamp": "2025-12-13T05:42:57.970628+00:00", "meta": {"OBJECT_NAME": "COSMOS 2251 DEB", "OBJECT_ID": "1993-036BVH", "EPOCH": "2025-12-11T12:30:37.061856", "MEAN_MOTION": 14.40990348, "ECCENTRICITY": 0.00239974, "INCLINATION": 74.0549, "RA_OF_ASC_NODE": 262.7798, "ARG_OF_PERICENTER": 324.5031, "MEAN_ANOMALY": 213.1591, "EPHEMERIS_TYPE": 0, "CLASSIFICATION_TYPE": "U", "NORAD_CAT_ID": 40228, "ELEMENT_SET_NO": 999, "REV_AT_EPOCH": 58903, "BSTAR": 0.00055464719, "MEAN_MOTION_DOT": 1.762e-05, "MEAN_MOTION_DDOT": 0}, "tle": {"line1": "1 40228U 93036BVH 25345.52126229  .00001762  00000+0  55465-3 0  9998", "line2": "2 40228  74.0549 262.7798 0023997 324.5031 213.1591 14.40990348589035"}}, "geometry": {"type": "Point", "coordinates": [-40.69096765321908, 71.6791700736561]}}, {"type": "Feature", "properties": {"norad_id": 40230, "name": "COSMOS 2251 DEB", "group": "cosmos-2251-debris", "lat": -70.3671901304733, "lon": 99.27410856658584, "alt_km": 722.3728767989323, "timestamp": "2025-12-13T05:42:57.970638+00:00", "meta": {"OBJECT_NAME": "COSMOS 2251 DEB", "OBJECT_ID": "1993-036BVK", "EPOCH": "2025-12-05T11:49:12.794880", "MEAN_MOTION": 14.49259606, "ECCENTRICITY": 0.00191133, "INCLINATION": 74.0458, "RA_OF_ASC_NODE": 240.4744, "ARG_OF_PERICENTER": 299.5216, "MEAN_ANOMALY": 242.5097, "EPHEMERIS_TYPE": 0, "CLASSIFICATION_TYPE": "U", "NORAD_CAT_ID": 40230, "ELEMENT_SET_NO": 999, "REV_AT_EPOCH": 58866, "BSTAR": 0.0014637297, "MEAN_MOTION_DOT": 5.571e-05, "MEAN_MOTION_DDOT": 0}, "tle": {"line1": "1 40230U 93036BVK 25339.49250920  .00005571  00000+0  14637-2 0  9993", "line2": "2 40230  74.0458 240.4744 0019113 299.5216 242.5097 14.49259606588661"}}, "geometry": {"type": "Point", "coordinates": [99.27410856658584, -70.3671901304733]}}, {"type": "Feature", "properties": {"norad_id": 40233, "name": "COSMOS 2251 DEB", "group": "cosmos-2251-debris", "lat": 72.21835211204588, "lon": -141.77412445273197, "alt_km": 684.7080484238459, "timestamp": "2025-12-13T05:42:57.970649+00:00", "meta": {"OBJECT_NAME": "COSMOS 2251 DEB", "OBJECT_ID": "1993-036BVN", "EPOCH": "2025-12-10T08:07:20.571456", "MEAN_MOTION": 14.58369028, "ECCENTRICITY": 0.00455232, "INCLINATION": 73.9396, "RA_OF_ASC_NODE": 107.7032, "ARG_OF_PERICENTER": 183.0007, "MEAN_ANOMALY": 177.0892, "EPHEMERIS_TYPE": 0, "CLASSIFICATION_TYPE": "U", "NORAD_CAT_ID": 40233, "ELEMENT_SET_NO": 999, "REV_AT_EPOCH": 59102, "BSTAR": 0.0022996574, "MEAN_MOTION_DOT": 0.00010791, "MEAN_MOTION_DDOT": 0}, "tle": {"line1": "1 40233U 93036BVN 25344.33843254  .00010791  00000+0  22997-2 0  9991", "line2": "2 40233  73.9396 107.7032 0045523 183.0007 177.0892 14.58369028591026"}}, "geometry": {"type": "Point", "coordinates": [-141.77412445273197, 72.21835211204588]}}, {"type": "Feature", "properties": {"norad_id": 40236, "name": "COSMOS 2251 DEB", "group": "cosmos-2251-debris", "lat": -72.92316503610841, "lon": 37.261425203756765, "alt_km": 1345.1737990903557, "timestamp": "2025-12-13T05:42:57.970660+00:00", "meta": {"OBJECT_NAME": "COSMOS 2251 DEB", "OBJECT_ID": "1993-036BVR", "EPOCH": "2025-12-07T17:52:23.026080", "MEAN_MOTION": 13.24639967, "ECCENTRICITY": 0.05366128, "INCLINATION": 73.5349, "RA_OF_ASC_NODE": 151.6266, "ARG_OF_PERICENTER": 32.3576, "MEAN_ANOMALY": 330.9258, "EPHEMERIS_TYPE": 0, "CLASSIFICATION_TYPE": "U", "NORAD_CAT_ID": 40236, "ELEMENT_SET_NO": 999, "REV_AT_EPOCH": 53558, "BSTAR": 0.0015786255, "MEAN_MOTION_DOT": 1.455e-05, "MEAN_MOTION_DDOT": 0}, "tle": {"line1": "1 40236U 93036BVR 25341.74471095  .00001455  00000+0  15786-2 0  9991", "line2": "2 40236  73.5349 151.6266 0536612  32.3576 330.9258 13.24639967535580"}}, "geometry": {"type": "Point", "coordinates": [37.261425203756765, -72.92316503610841]}}, {"type": "Feature", "properties": {"norad_id": 40238, "name": "COSMOS 2251 DEB", "group": "cosmos-2251-debris", "lat": 3.554173186734116, "lon": 63.85566301018911, "alt_km": 805.5617698454926, "timestamp": "2025-12-13T05:42:57.970670+00:00", "meta": {"OBJECT_NAME": "COSMOS 2251 DEB", "OBJECT_ID": "1993-036BVT", "EPOCH": "2025-12-09T21:58:52.795776", "MEAN_MOTION": 13.25105207, "ECCENTRICITY": 0.05495016, "INCLINATION": 73.9881, "RA_OF_ASC_NODE": 67.934, "ARG_OF_PERICENTER": 40.3773, "MEAN_ANOMALY": 323.6787, "EPHEMERIS_TYPE": 0, "CLASSIFICATION_TYPE": "U", "NORAD_CAT_ID": 40238, "ELEMENT_SET_NO": 999, "REV_AT_EPOCH": 53999, "BSTAR": 0.0016484938, "MEAN_MOTION_DOT": 1.598e-05, "MEAN_MOTION_DDOT": 0}, "tle": {"line1": "1 40238U 93036BVT 25343.91588884  .00001598  00000+0  16485-2 0  9994", "line2": "2 40238  73.9881  67.9340 0549501  40.3773 323.6787 13.25105207539999"}}, "geometry": {"type": "Point", "coordinates": [63.85566301018911, 3.554173186734116]}}, {"type": "Feature", "properties": {"norad_id": 40239, "name": "COSMOS 2251 DEB", "group": "cosmos-2251-debris", "lat": 57.2861337534071, "lon": -58.644360259195864, "alt_km": 631.6457140211623, "timestamp": "2025-12-13T05:42:57.970681+00:00", "meta": {"OBJECT_NAME": "COSMOS 2251 DEB", "OBJECT_ID": "1993-036BVU", "EPOCH": "2025-12-10T14:12:54.993024", "MEAN_MOTION": 14.6197936, "ECCENTRICITY": 0.0084758, "INCLINATION": 74.0316, "RA_OF_ASC_NODE": 279.9471, "ARG_OF_PERICENTER": 31.8637, "MEAN_ANOMALY": 148.8031, "EPHEMERIS_TYPE": 0, "CLASSIFICATION_TYPE": "U", "NORAD_CAT_ID": 40239, "ELEMENT_SET_NO": 999, "REV_AT_EPOCH": 59579, "BSTAR": 0.00074089, "MEAN_MOTION_DOT": 3.879e-05, "MEAN_MOTION_DDOT": 0}, "tle": {"line1": "1 40239U 93036BVU 25344.59230316  .00003879  00000+0  74089-3 0  9993", "line2": "2 40239  74.0316 279.9471 0084758  31.8637 148.8031 14.61979360595796"}}, "geometry": {"type": "Point", "coordinates": [-58.644360259195864, 57.2861337534071]}}]}